0 CZ-2C DEB
1 36091U 09061D   13281.51428545  .00001861  00000-0  44257-3 0  6699
2 36091 097.9378 273.4088 0088396 142.9882 333.7083 14.52597488206495
0 CZ-2C DEB
1 36091U 09061D   13283.78876278  .00002020  00000-0  47920-3 0  6700
2 36091 097.9376 275.5616 0088454 136.0458 347.6716 14.52613922206827
0 CZ-2C DEB
1 36091U 09061D   13285.98031111  .00002951  00000-0  69497-3 0  6710
2 36091 097.9374 277.6357 0088498 129.2206 288.2392 14.52622726207130
0 CZ-2C DEB
1 36091U 09061D   13287.98219417  .00003787  00000-0  88849-3 0  6720
2 36091 097.9371 279.5305 0088566 123.1148 316.8976 14.52634676207420
0 CZ-2C DEB
1 36091U 09061D   13290.04734633  .00003538  00000-0  83050-3 0  6737
2 36091 097.9373 281.4849 0088658 116.7966 316.5350 14.52646188207722
0 CZ-2C DEB
1 36091U 09061D   13292.47486582  .00003883  00000-0  90994-3 0  6742
2 36091 097.9376 283.7823 0088687 109.3517 051.3092 14.52664400208088
0 CZ-2C DEB
1 36091U 09061D   13294.53403100  .00004676  00000-0  10933-2 0  6752
2 36091 097.9384 285.7311 0088745 103.0537 019.8618 14.52677057208387
